{
  "type": "FeatureCollection",
  "features": [
    {
      "type": "Feature",
      "properties": {
        "norad_id": 29937,
        "name": "FENGYUN 1C DEB",
        "group": "fengyun-1c-debris",
        "lat": 46.70139848961987,
        "lon": 7.5010617369917325,
        "alt_km": 860.3527607256565,
        "timestamp": "2025-12-22T05:49:03.771948+00:00",
        "meta_object_name": "FENGYUN 1C DEB",
        "meta_object_id": "1999-025JK",
        "meta_epoch": "2025-12-21T20:09:38.939328",
        "meta_mean_motion": 14.04360286,
        "meta_eccentricity": 0.0031942,
        "meta_inclination": 98.8016,
        "meta_ra_of_asc_node": 16.5747,
        "meta_arg_of_pericenter": 356.3294,
        "meta_mean_anomaly": 177.7483,
        "meta_ephemeris_type": 0,
        "meta_classification_type": "U",
        "meta_norad_cat_id": 29937,
        "meta_element_set_no": 999,
        "meta_rev_at_epoch": 97063,
        "meta_bstar": -6.2001e-05,
        "meta_mean_motion_dot": -1.42e-06,
        "meta_mean_motion_ddot": 0,
        "tle_line1": "1 29937U 99025JK  25355.84003402 -.00000142  00000+0 -62001-4 0  9997",
        "tle_line2": "2 29937  98.8016  16.5747 0031942 356.3294 177.7483 14.04360286970631"
      },
      "geometry": {
        "type": "Point",
        "coordinates": [
          7.5010617369917325,
          46.70139848961987
        ]
      }
    },
    {
      "type": "Feature",
      "properties": {
        "norad_id": 29938,
        "name": "FENGYUN 1C DEB",
        "group": "fengyun-1c-debris",
        "lat": 75.99163107161093,
        "lon": -52.386432834654805,
        "alt_km": 882.3746563316072,
        "timestamp": "2025-12-22T05:49:03.771958+00:00",
        "meta_object_name": "FENGYUN 1C DEB",
        "meta_object_id": "1999-025JL",
        "meta_epoch": "2025-12-21T18:20:49.939296",
        "meta_mean_motion": 14.07463449,
        "meta_eccentricity": 0.0032618,
        "meta_inclination": 98.8028,
        "meta_ra_of_asc_node": 345.545,
        "meta_arg_of_pericenter": 284.7374,
        "meta_mean_anomaly": 253.8888,
        "meta_ephemeris_type": 0,
        "meta_classification_type": "U",
        "meta_norad_cat_id": 29938,
        "meta_element_set_no": 999,
        "meta_rev_at_epoch": 97183,
        "meta_bstar": 4.0047e-05,
        "meta_mean_motion_dot": 2.4e-07,
        "meta_mean_motion_ddot": 0,
        "tle_line1": "1 29938U 99025JL  25355.76446689  .00000024  00000+0  40047-4 0  9990",
        "tle_line2": "2 29938  98.8028 345.5450 0032618 284.7374 253.8888 14.07463449971831"
      },
      "geometry": {
        "type": "Point",
        "coordinates": [
          -52.386432834654805,
          75.99163107161093
        ]
      }
    },
    {
      "type": "Feature",
      "properties": {
        "norad_id": 29939,
        "name": "FENGYUN 1C DEB",
        "group": "fengyun-1c-debris",
        "lat": -47.528319629777,
        "lon": 165.9181913339267,
        "alt_km": 880.3190953575113,
        "timestamp": "2025-12-22T05:49:03.771969+00:00",
        "meta_object_name": "FENGYUN 1C DEB",
        "meta_object_id": "1999-025JM",
        "meta_epoch": "2025-12-21T19:23:15.108864",
        "meta_mean_motion": 14.12086441,
        "meta_eccentricity": 0.0067247,
        "meta_inclination": 98.7098,
        "meta_ra_of_asc_node": 355.136,
        "meta_arg_of_pericenter": 113.083,
        "meta_mean_anomaly": 66.393,
        "meta_ephemeris_type": 0,
        "meta_classification_type": "U",
        "meta_norad_cat_id": 29939,
        "meta_element_set_no": 999,
        "meta_rev_at_epoch": 97588,
        "meta_bstar": 4.1712e-05,
        "meta_mean_motion_dot": 3.6e-07,
        "meta_mean_motion_ddot": 0,
        "tle_line1": "1 29939U 99025JM  25355.80781376  .00000036  00000+0  41712-4 0  9994",
        "tle_line2": "2 29939  98.7098 355.1360 0067247 113.0830  66.3930 14.12086441975885"
      },
      "geometry": {
        "type": "Point",
        "coordinates": [
          165.9181913339267,
          -47.528319629777
        ]
      }
    },
    {
      "type": "Feature",
      "properties": {
        "norad_id": 29940,
        "name": "FENGYUN 1C DEB",
        "group": "fengyun-1c-debris",
        "lat": -78.27756151831363,
        "lon": 138.67923425003218,
        "alt_km": 889.6892795013509,
        "timestamp": "2025-12-22T05:49:03.771979+00:00",
        "meta_object_name": "FENGYUN 1C DEB",
        "meta_object_id": "1999-025JN",
        "meta_epoch": "2025-12-21T12:22:13.370592",
        "meta_mean_motion": 14.18842054,
        "meta_eccentricity": 0.00746566,
        "meta_inclination": 98.621,
        "meta_ra_of_asc_node": 4.9531,
        "meta_arg_of_pericenter": 74.8279,
        "meta_mean_anomaly": 76.1675,
        "meta_ephemeris_type": 0,
        "meta_classification_type": "U",
        "meta_norad_cat_id": 29940,
        "meta_element_set_no": 999,
        "meta_rev_at_epoch": 97612,
        "meta_bstar": 0.00048981934,
        "meta_mean_motion_dot": 1.006e-05,
        "meta_mean_motion_ddot": 0,
        "tle_line1": "1 29940U 99025JN  25355.51543253  .00001006  00000+0  48982-3 0  9997",
        "tle_line2": "2 29940  98.6210   4.9531 0074656  74.8279  76.1675 14.18842054976123"
      },
      "geometry": {
        "type": "Point",
        "coordinates": [
          138.67923425003218,
          -78.27756151831363
        ]
      }
    },
    {
      "type": "Feature",
      "properties": {
        "norad_id": 29942,
        "name": "FENGYUN 1C DEB",
        "group": "fengyun-1c-debris",
        "lat": 20.74886690722766,
        "lon": -114.6863633660635,
        "alt_km": 789.2724805828921,
        "timestamp": "2025-12-22T05:49:03.771989+00:00",
        "meta_object_name": "FENGYUN 1C DEB",
        "meta_object_id": "1999-025JQ",
        "meta_epoch": "2025-12-21T17:19:15.235104",
        "meta_mean_motion": 14.3044178,
        "meta_eccentricity": 0.0049156,
        "meta_inclination": 98.6363,
        "meta_ra_of_asc_node": 61.496,
        "meta_arg_of_pericenter": 249.2855,
        "meta_mean_anomaly": 110.3055,
        "meta_ephemeris_type": 0,
        "meta_classification_type": "U",
        "meta_norad_cat_id": 29942,
        "meta_element_set_no": 999,
        "meta_rev_at_epoch": 97997,
        "meta_bstar": 0.0005323,
        "meta_mean_motion_dot": 1.359e-05,
        "meta_mean_motion_ddot": 0,
        "tle_line1": "1 29942U 99025JQ  25355.72170411  .00001359  00000+0  53230-3 0  9997",
        "tle_line2": "2 29942  98.6363  61.4960 0049156 249.2855 110.3055 14.30441780979977"
      },
      "geometry": {
        "type": "Point",
        "coordinates": [
          -114.6863633660635,
          20.74886690722766
        ]
      }
    },
    {
      "type": "Feature",
      "properties": {
        "norad_id": 29943,
        "name": "FENGYUN 1C DEB",
        "group": "fengyun-1c-debris",
        "lat": 59.52762815395252,
        "lon": -161.15997530763167,
        "alt_km": 850.3641735477859,
        "timestamp": "2025-12-22T05:49:03.772000+00:00",
        "meta_object_name": "FENGYUN 1C DEB",
        "meta_object_id": "1999-025JR",
        "meta_epoch": "2025-12-21T12:48:13.435776",
        "meta_mean_motion": 14.09673015,
        "meta_eccentricity": 0.00352493,
        "meta_inclination": 98.7265,
        "meta_ra_of_asc_node": 3.0214,
        "meta_arg_of_pericenter": 201.712,
        "meta_mean_anomaly": 282.3279,
        "meta_ephemeris_type": 0,
        "meta_classification_type": "U",
        "meta_norad_cat_id": 29943,
        "meta_element_set_no": 999,
        "meta_rev_at_epoch": 97430,
        "meta_bstar": 4.6108506e-05,
        "meta_mean_motion_dot": 3.9e-07,
        "meta_mean_motion_ddot": 0,
        "tle_line1": "1 29943U 99025JR  25355.53348884  .00000039  00000+0  46109-4 0  9990",
        "tle_line2": "2 29943  98.7265   3.0214 0035249 201.7120 282.3279 14.09673015974304"
      },
      "geometry": {
        "type": "Point",
        "coordinates": [
          -161.15997530763167,
          59.52762815395252
        ]
      }
    },
    {
      "type": "Feature",
      "properties": {
        "norad_id": 29944,
        "name": "FENGYUN 1C DEB",
        "group": "fengyun-1c-debris",
        "lat": 67.68464223525426,
        "lon": -91.12985426235309,
        "alt_km": 675.4735676258015,
        "timestamp": "2025-12-22T05:49:03.772010+00:00",
        "meta_object_name": "FENGYUN 1C DEB",
        "meta_object_id": "1999-025JS",
        "meta_epoch": "2025-12-21T18:11:48.839424",
        "meta_mean_motion": 14.87639101,
        "meta_eccentricity": 0.0166508,
        "meta_inclination": 99.005,
        "meta_ra_of_asc_node": 291.0495,
        "meta_arg_of_pericenter": 203.117,
        "meta_mean_anomaly": 156.2491,
        "meta_ephemeris_type": 0,
        "meta_classification_type": "U",
        "meta_norad_cat_id": 29944,
        "meta_element_set_no": 999,
        "meta_rev_at_epoch": 588,
        "meta_bstar": 0.0005112,
        "meta_mean_motion_dot": 5.928e-05,
        "meta_mean_motion_ddot": 0,
        "tle_line1": "1 29944U 99025JS  25355.75820416  .00005928  00000+0  51120-3 0  9991",
        "tle_line2": "2 29944  99.0050 291.0495 0166508 203.1170 156.2491 14.87639101  5882"
      },
      "geometry": {
        "type": "Point",
        "coordinates": [
          -91.12985426235309,
          67.68464223525426
        ]
      }
    }
  ]
}